COSMOS 2361 [-]         
1 25590U 98076A   21341.12151229  .00000038  00000+0  24819-4 0  9993
2 25590  82.9334 348.3258 0032116  25.5439  38.8227 13.73005900150145
COSMOS 2378 [-]         
1 26818U 01023A   21341.51063410  .00000071  00000+0  59893-4 0  9997
2 26818  82.9298   6.4323 0032437 331.7776  28.1626 13.73961297 27952
COSMOS 2389 [-]         
1 27436U 02026A   21341.47747186  .00000027  00000+0  12682-4 0  9998
2 27436  82.9491 312.0272 0046062 189.6463 287.1743 13.74962547980040
COSMOS 2398 [-]         
1 27818U 03023A   21341.20720605  .00000005  00000+0 -10467-4 0  9994
2 27818  82.9480 273.1933 0030015 224.3554 135.5191 13.72197676927025
COSMOS 2407 [+]         
1 28380U 04028A   21340.82640006  .00000032  00000+0  17099-4 0  9995
2 28380  82.9624 219.0117 0038551 194.2542 165.7532 13.76099301872672
COSMOS 2414 [+]         
1 28521U 05002A   21341.52118966  .00000046  00000+0  25444-4 0  9996
2 28521  82.9516 213.3224 0040853   3.0250 357.1154 13.87641024854939
COSMOS 2429 [-]         
1 32052U 07038A   21341.11318951  .00000025  00000+0  97301-5 0  9991
2 32052  82.9795 344.0212 0038704 169.1545 191.0455 13.74948631714567
COSMOS 2454 [-]         
1 35635U 09039A   21341.56121050  .00000055  00000+0  32184-4 0  9995
2 35635  82.9574 200.0028 0018541 311.0950  48.8617 13.89671161628046
COSMOS 2463 [+]         
1 36519U 10017A   21341.25709096  .00000086  00000+0  78795-4 0  9995
2 36519  82.9628  23.9841 0037250  37.9258 322.4508 13.71463560581441
